TYVAK-182A              
1 48271U 21034D   26068.71131789  .00007163  00000+0  50673-3 0  9991
2 48271  97.5843 129.3711 0004862 316.5650  43.5193 15.05150420264864
STARLINK-5902           
1 55998U 23042N   26068.03644489  .00001220  00000+0  10539-3 0  9992
2 55998  43.0042  59.5275 0001293 263.1469  96.9226 15.02537897162819
