[{"OBJECT_NAME":"TYVAK-182A","OBJECT_ID":"2021-034D","EPOCH":"2026-03-09T17:04:17.866560","MEAN_MOTION":15.0515042,"ECCENTRICITY":0.00048625,"INCLINATION":97.5843,"RA_OF_ASC_NODE":129.3711,"ARG_OF_PERICENTER":316.565,"MEAN_ANOMALY":43.5193,"EPHEMERIS_TYPE":0,"CLASSIFICATION_TYPE":"U","NORAD_CAT_ID":48271,"ELEMENT_SET_NO":999,"REV_AT_EPOCH":26486,"BSTAR":0.00050672592,"MEAN_MOTION_DOT":7.163e-5,"MEAN_MOTION_DDOT":0},{"OBJECT_NAME":"STARLINK-5902","OBJECT_ID":"2023-042N","EPOCH":"2026-03-09T00:52:28.838496","MEAN_MOTION":15.02537897,"ECCENTRICITY":0.00012932,"INCLINATION":43.0042,"RA_OF_ASC_NODE":59.5275,"ARG_OF_PERICENTER":263.1469,"MEAN_ANOMALY":96.9226,"EPHEMERIS_TYPE":0,"CLASSIFICATION_TYPE":"U","NORAD_CAT_ID":55998,"ELEMENT_SET_NO":999,"REV_AT_EPOCH":16281,"BSTAR":0.00010539184,"MEAN_MOTION_DOT":1.22e-5,"MEAN_MOTION_DDOT":0}]
